ATLAS CENTAUR R/B       
1 06155U 72065B   26074.57178072  .00001218  00000+0  16921-3 0  9996
2 06155  35.0008 271.2821 0032979  58.8694 301.5235 14.77704176842139
SL-8 R/B                
1 08459U 75112B   26074.55473404  .00000221  00000+0  81167-4 0  9994
2 08459  74.0635   8.1237 0014445  98.9342 261.3448 14.38207242632717
SL-3 R/B                
1 10114U 77057B   26074.61055343  .00012477  00000+0  26034-3 0  9997
2 10114  97.5775 246.7931 0006149 259.2910 100.7646 15.45676235669244
SEASAT 1                
1 10967U 78064A   26074.58325993  .00000209  00000+0  96839-4 0  9990
2 10967 108.0098 137.8667 0002403 283.6105  76.4773 14.46165172507365
SL-14 R/B               
1 11267U 79011B   26074.54969119  .00000585  00000+0  55151-4 0  9996
2 11267  82.5203  91.0085 0017065  42.3467 317.9067 14.91915407529658
SL-8 R/B                
1 11574U 79089B   26074.43296963  .00000324  00000+0  10590-3 0  9998
2 11574  74.0667  80.4107 0017081 252.5105 107.4184 14.42354896436933
SL-14 R/B               
1 11672U 80005B   26074.56657190  .00000495  00000+0  47432-4 0  9999
2 11672  82.5134 301.6613 0016662 139.5530 220.6931 14.90937137477363
SL-8 R/B                
1 12139U 81003B   26074.56334547  .00019036  00000+0  48499-3 0  9999
2 12139  82.9379 284.5927 0261630 158.1754 203.0877 15.11229264315562
SL-3 R/B                
1 12465U 81046B   26074.62439225  .00010649  00000+0  24620-3 0  9995
2 12465  81.2291 282.6168 0019084   1.7288 358.4017 15.42156953439346
SL-3 R/B                
1 12904U 81103B   26074.62570241  .00005493  00000+0  24289-3 0  9993
2 12904  81.1594 206.4689 0012451 265.2219  94.7591 15.21456705974136
SL-3 R/B                
1 13068U 82013B   26074.63132653  .00004660  00000+0  20108-3 0  9999
2 13068  81.1762 153.8077 0023017 157.4841 202.7406 15.22078457405257
SL-3 R/B                
1 13154U 82039B   26074.62029880  .00002450  00000+0  14746-3 0  9995
2 13154  81.1576 209.1244 0029449 305.0758  54.7706 15.10118174382531
