CCSDS_OMM_VERS = 2.0
CREATION_DATE  = 
ORIGINATOR     = 

OBJECT_NAME    = ATLAS CENTAUR R/B
OBJECT_ID      = 1972-065B
CENTER_NAME    = EARTH
REF_FRAME      = TEME
TIME_SYSTEM    = UTC
MEAN_ELEMENT_THEORY = SGP/SGP4

EPOCH          = 2026-03-15T13:43:21.854208
MEAN_MOTION    = 14.77704176
ECCENTRICITY   = .00329794
INCLINATION    = 35.0008
RA_OF_ASC_NODE = 271.2821
ARG_OF_PERICENTER = 58.8694
MEAN_ANOMALY   = 301.5235

EPHEMERIS_TYPE = 0
CLASSIFICATION_TYPE = U
NORAD_CAT_ID   = 6155
ELEMENT_SET_NO = 999
REV_AT_EPOCH   = 84213
BSTAR          = .16920686E-3
MEAN_MOTION_DOT = .1218E-4
MEAN_MOTION_DDOT = 0

CCSDS_OMM_VERS = 2.0
CREATION_DATE  = 
ORIGINATOR     = 

OBJECT_NAME    = SL-8 R/B
OBJECT_ID      = 1975-112B
CENTER_NAME    = EARTH
REF_FRAME      = TEME
TIME_SYSTEM    = UTC
MEAN_ELEMENT_THEORY = SGP/SGP4

EPOCH          = 2026-03-15T13:18:49.021056
MEAN_MOTION    = 14.38207242
ECCENTRICITY   = .00144452
INCLINATION    = 74.0635
RA_OF_ASC_NODE = 8.1237
ARG_OF_PERICENTER = 98.9342
MEAN_ANOMALY   = 261.3448

EPHEMERIS_TYPE = 0
CLASSIFICATION_TYPE = U
NORAD_CAT_ID   = 8459
ELEMENT_SET_NO = 999
REV_AT_EPOCH   = 63271
BSTAR          = .81166741E-4
MEAN_MOTION_DOT = .221E-5
MEAN_MOTION_DDOT = 0

CCSDS_OMM_VERS = 2.0
CREATION_DATE  = 
ORIGINATOR     = 

OBJECT_NAME    = SL-3 R/B
OBJECT_ID      = 1977-057B
CENTER_NAME    = EARTH
REF_FRAME      = TEME
TIME_SYSTEM    = UTC
MEAN_ELEMENT_THEORY = SGP/SGP4

EPOCH          = 2026-03-15T14:39:11.816352
MEAN_MOTION    = 15.45676235
ECCENTRICITY   = .00061496
INCLINATION    = 97.5775
RA_OF_ASC_NODE = 246.7931
ARG_OF_PERICENTER = 259.2910
MEAN_ANOMALY   = 100.7646

EPHEMERIS_TYPE = 0
CLASSIFICATION_TYPE = U
NORAD_CAT_ID   = 10114
ELEMENT_SET_NO = 999
REV_AT_EPOCH   = 66924
BSTAR          = .26033642E-3
MEAN_MOTION_DOT = .12477E-3
MEAN_MOTION_DDOT = 0

CCSDS_OMM_VERS = 2.0
CREATION_DATE  = 
ORIGINATOR     = 

OBJECT_NAME    = SEASAT 1
OBJECT_ID      = 1978-064A
CENTER_NAME    = EARTH
REF_FRAME      = TEME
TIME_SYSTEM    = UTC
MEAN_ELEMENT_THEORY = SGP/SGP4

EPOCH          = 2026-03-15T13:59:53.657952
MEAN_MOTION    = 14.46165172
ECCENTRICITY   = .00024035
INCLINATION    = 108.0098
RA_OF_ASC_NODE = 137.8667
ARG_OF_PERICENTER = 283.6105
MEAN_ANOMALY   = 76.4773

EPHEMERIS_TYPE = 0
CLASSIFICATION_TYPE = U
NORAD_CAT_ID   = 10967
ELEMENT_SET_NO = 999
REV_AT_EPOCH   = 50736
BSTAR          = .96839212E-4
MEAN_MOTION_DOT = .209E-5
MEAN_MOTION_DDOT = 0

CCSDS_OMM_VERS = 2.0
CREATION_DATE  = 
ORIGINATOR     = 

OBJECT_NAME    = SL-14 R/B
OBJECT_ID      = 1979-011B
CENTER_NAME    = EARTH
REF_FRAME      = TEME
TIME_SYSTEM    = UTC
MEAN_ELEMENT_THEORY = SGP/SGP4

EPOCH          = 2026-03-15T13:11:33.318816
MEAN_MOTION    = 14.91915407
ECCENTRICITY   = .00170658
INCLINATION    = 82.5203
RA_OF_ASC_NODE = 91.0085
ARG_OF_PERICENTER = 42.3467
MEAN_ANOMALY   = 317.9067

EPHEMERIS_TYPE = 0
CLASSIFICATION_TYPE = U
NORAD_CAT_ID   = 11267
ELEMENT_SET_NO = 999
REV_AT_EPOCH   = 52965
BSTAR          = .55151249E-4
MEAN_MOTION_DOT = .585E-5
MEAN_MOTION_DDOT = 0

CCSDS_OMM_VERS = 2.0
CREATION_DATE  = 
ORIGINATOR     = 

OBJECT_NAME    = SL-8 R/B
OBJECT_ID      = 1979-089B
CENTER_NAME    = EARTH
REF_FRAME      = TEME
TIME_SYSTEM    = UTC
MEAN_ELEMENT_THEORY = SGP/SGP4

EPOCH          = 2026-03-15T10:23:28.576032
MEAN_MOTION    = 14.42354896
ECCENTRICITY   = .0017081
INCLINATION    = 74.0667
RA_OF_ASC_NODE = 80.4107
ARG_OF_PERICENTER = 252.5105
MEAN_ANOMALY   = 107.4184

EPHEMERIS_TYPE = 0
CLASSIFICATION_TYPE = U
NORAD_CAT_ID   = 11574
ELEMENT_SET_NO = 999
REV_AT_EPOCH   = 43693
BSTAR          = .105898E-3
MEAN_MOTION_DOT = .324E-5
MEAN_MOTION_DDOT = 0

CCSDS_OMM_VERS = 2.0
CREATION_DATE  = 
ORIGINATOR     = 

OBJECT_NAME    = SL-14 R/B
OBJECT_ID      = 1980-005B
CENTER_NAME    = EARTH
REF_FRAME      = TEME
TIME_SYSTEM    = UTC
MEAN_ELEMENT_THEORY = SGP/SGP4

EPOCH          = 2026-03-15T13:35:51.812160
MEAN_MOTION    = 14.90937137
ECCENTRICITY   = .00166626
INCLINATION    = 82.5134
RA_OF_ASC_NODE = 301.6613
ARG_OF_PERICENTER = 139.5530
MEAN_ANOMALY   = 220.6931

EPHEMERIS_TYPE = 0
CLASSIFICATION_TYPE = U
NORAD_CAT_ID   = 11672
ELEMENT_SET_NO = 999
REV_AT_EPOCH   = 47736
BSTAR          = .47431505E-4
MEAN_MOTION_DOT = .495E-5
MEAN_MOTION_DDOT = 0

CCSDS_OMM_VERS = 2.0
CREATION_DATE  = 
ORIGINATOR     = 

OBJECT_NAME    = SL-8 R/B
OBJECT_ID      = 1981-003B
CENTER_NAME    = EARTH
REF_FRAME      = TEME
TIME_SYSTEM    = UTC
MEAN_ELEMENT_THEORY = SGP/SGP4

EPOCH          = 2026-03-15T13:31:13.048608
MEAN_MOTION    = 15.11229264
ECCENTRICITY   = .02616308
INCLINATION    = 82.9379
RA_OF_ASC_NODE = 284.5927
ARG_OF_PERICENTER = 158.1754
MEAN_ANOMALY   = 203.0877

EPHEMERIS_TYPE = 0
CLASSIFICATION_TYPE = U
NORAD_CAT_ID   = 12139
ELEMENT_SET_NO = 999
REV_AT_EPOCH   = 31556
BSTAR          = .48499134E-3
MEAN_MOTION_DOT = .19036E-3
MEAN_MOTION_DDOT = 0

CCSDS_OMM_VERS = 2.0
CREATION_DATE  = 
ORIGINATOR     = 

OBJECT_NAME    = SL-3 R/B
OBJECT_ID      = 1981-046B
CENTER_NAME    = EARTH
REF_FRAME      = TEME
TIME_SYSTEM    = UTC
MEAN_ELEMENT_THEORY = SGP/SGP4

EPOCH          = 2026-03-15T14:59:07.490400
MEAN_MOTION    = 15.42156953
ECCENTRICITY   = .00190844
INCLINATION    = 81.2291
RA_OF_ASC_NODE = 282.6168
ARG_OF_PERICENTER = 1.7288
MEAN_ANOMALY   = 358.4017

EPHEMERIS_TYPE = 0
CLASSIFICATION_TYPE = U
NORAD_CAT_ID   = 12465
ELEMENT_SET_NO = 999
REV_AT_EPOCH   = 43934
BSTAR          = .24619614E-3
MEAN_MOTION_DOT = .10649E-3
MEAN_MOTION_DDOT = 0

CCSDS_OMM_VERS = 2.0
CREATION_DATE  = 
ORIGINATOR     = 

OBJECT_NAME    = SL-3 R/B
OBJECT_ID      = 1981-103B
CENTER_NAME    = EARTH
REF_FRAME      = TEME
TIME_SYSTEM    = UTC
MEAN_ELEMENT_THEORY = SGP/SGP4

EPOCH          = 2026-03-15T15:01:00.688224
MEAN_MOTION    = 15.21456705
ECCENTRICITY   = .00124518
INCLINATION    = 81.1594
RA_OF_ASC_NODE = 206.4689
ARG_OF_PERICENTER = 265.2219
MEAN_ANOMALY   = 94.7591

EPHEMERIS_TYPE = 0
CLASSIFICATION_TYPE = U
NORAD_CAT_ID   = 12904
ELEMENT_SET_NO = 999
REV_AT_EPOCH   = 97413
BSTAR          = .2428946E-3
MEAN_MOTION_DOT = .5493E-4
MEAN_MOTION_DDOT = 0

CCSDS_OMM_VERS = 2.0
CREATION_DATE  = 
ORIGINATOR     = 

OBJECT_NAME    = SL-3 R/B
OBJECT_ID      = 1982-013B
CENTER_NAME    = EARTH
REF_FRAME      = TEME
TIME_SYSTEM    = UTC
MEAN_ELEMENT_THEORY = SGP/SGP4

EPOCH          = 2026-03-15T15:09:06.612192
MEAN_MOTION    = 15.22078457
ECCENTRICITY   = .00230176
INCLINATION    = 81.1762
RA_OF_ASC_NODE = 153.8077
ARG_OF_PERICENTER = 157.4841
MEAN_ANOMALY   = 202.7406

EPHEMERIS_TYPE = 0
CLASSIFICATION_TYPE = U
NORAD_CAT_ID   = 13068
ELEMENT_SET_NO = 999
REV_AT_EPOCH   = 40525
BSTAR          = .20107999E-3
MEAN_MOTION_DOT = .466E-4
MEAN_MOTION_DDOT = 0

CCSDS_OMM_VERS = 2.0
CREATION_DATE  = 
ORIGINATOR     = 

OBJECT_NAME    = SL-3 R/B
OBJECT_ID      = 1982-039B
CENTER_NAME    = EARTH
REF_FRAME      = TEME
TIME_SYSTEM    = UTC
MEAN_ELEMENT_THEORY = SGP/SGP4

EPOCH          = 2026-03-15T14:53:13.816320
MEAN_MOTION    = 15.10118174
ECCENTRICITY   = .0029449
INCLINATION    = 81.1576
RA_OF_ASC_NODE = 209.1244
ARG_OF_PERICENTER = 305.0758
MEAN_ANOMALY   = 54.7706

EPHEMERIS_TYPE = 0
CLASSIFICATION_TYPE = U
NORAD_CAT_ID   = 13154
ELEMENT_SET_NO = 999
REV_AT_EPOCH   = 38253
BSTAR          = .1474642E-3
MEAN_MOTION_DOT = .245E-4
MEAN_MOTION_DDOT = 0

